YAOGAN-36 04C           
1 54750U 22171E   26068.78871400  .00016196  00000+0  54592-3 0  9991
2 54750  34.9797  96.6578 0006685 275.3761  84.6192 15.29852307180246
STARLINK-30369          
1 57781U 23134L   26068.39817921  .00000027  00000+0  10492-4 0  9991
2 57781  42.9965 195.9954 0000523 285.4922  74.5872 15.27583915139461
